{"type": "FeatureCollection", "features": [ {"type": "Feature", "properties": {"norad_id": 34014, "name": "COSMOS 2251 DEB", "group": "cosmos-2251-debris", "lat": 7.631782401896397, "lon": 105.02425267424626, "alt_km": 659.1502114858031, "timestamp": "2025-12-09T09:46:48.039048+00:00", "meta": {"OBJECT_NAME": "COSMOS 2251 DEB", "OBJECT_ID": "1993-036GZ", "EPOCH": "2025-12-09T02:33:16.268256", "MEAN_MOTION": 14.73062011, "ECCENTRICITY": 0.00369, "INCLINATION": 74.0175, "RA_OF_ASC_NODE": 287.8121, "ARG_OF_PERICENTER": 68.4621, "MEAN_ANOMALY": 307.1932, "EPHEMERIS_TYPE": 0, "CLASSIFICATION_TYPE": "U", "NORAD_CAT_ID": 34014, "ELEMENT_SET_NO": 999, "REV_AT_EPOCH": 89250, "BSTAR": 0.001282, "MEAN_MOTION_DOT": 8.313e-05, "MEAN_MOTION_DDOT": 0}, "tle": {"line1": "1 34014U 93036GZ  25343.10643829  .00008313  00000+0  12820-2 0  9992", "line2": "2 34014  74.0175 287.8121 0036900  68.4621 307.1932 14.73062011892506"}}, "geometry": {"type": "Point", "coordinates": [105.02425267424626, 7.631782401896397]}}, {"type": "Feature", "properties": {"norad_id": 34015, "name": "COSMOS 2251 DEB", "group": "cosmos-2251-debris", "lat": 72.29792564866116, "lon": -130.3665488692099, "alt_km": 700.2072703353597, "timestamp": "2025-12-09T09:46:48.039058+00:00", "meta": {"OBJECT_NAME": "COSMOS 2251 DEB", "OBJECT_ID": "1993-036HA", "EPOCH": "2025-12-08T22:24:13.715712", "MEAN_MOTION": 14.60167734, "ECCENTRICITY": 0.0021082, "INCLINATION": 74.0233, "RA_OF_ASC_NODE": 166.6949, "ARG_OF_PERICENTER": 263.8752, "MEAN_ANOMALY": 207.7767, "EPHEMERIS_TYPE": 0, "CLASSIFICATION_TYPE": "U", "NORAD_CAT_ID": 34015, "ELEMENT_SET_NO": 999, "REV_AT_EPOCH": 88475, "BSTAR": 0.0015805, "MEAN_MOTION_DOT": 7.615e-05, "MEAN_MOTION_DDOT": 0}, "tle": {"line1": "1 34015U 93036HA  25342.93349208  .00007615  00000+0  15805-2 0  9997", "line2": "2 34015  74.0233 166.6949 0021082 263.8752 207.7767 14.60167734884758"}}, "geometry": {"type": "Point", "coordinates": [-130.3665488692099, 72.29792564866116]}}, {"type": "Feature", "properties": {"norad_id": 34018, "name": "COSMOS 2251 DEB", "group": "cosmos-2251-debris", "lat": 73.83420088608297, "lon": -168.45667587192338, "alt_km": 809.1202695866687, "timestamp": "2025-12-09T09:46:48.039068+00:00", "meta": {"OBJECT_NAME": "COSMOS 2251 DEB", "OBJECT_ID": "1993-036HD", "EPOCH": "2025-12-08T18:25:01.315776", "MEAN_MOTION": 13.81064043, "ECCENTRICITY": 0.0263983, "INCLINATION": 73.8773, "RA_OF_ASC_NODE": 98.827, "ARG_OF_PERICENTER": 135.4632, "MEAN_ANOMALY": 16.2456, "EPHEMERIS_TYPE": 0, "CLASSIFICATION_TYPE": "U", "NORAD_CAT_ID": 34018, "ELEMENT_SET_NO": 999, "REV_AT_EPOCH": 84602, "BSTAR": 0.0010334743, "MEAN_MOTION_DOT": 1.401e-05, "MEAN_MOTION_DDOT": 0}, "tle": {"line1": "1 34018U 93036HD  25342.76737634  .00001401  00000+0  10335-2 0  9995", "line2": "2 34018  73.8773  98.8270 0263983 135.4632  16.2456 13.81064043846026"}}, "geometry": {"type": "Point", "coordinates": [-168.45667587192338, 73.83420088608297]}}, {"type": "Feature", "properties": {"norad_id": 34019, "name": "COSMOS 2251 DEB", "group": "cosmos-2251-debris", "lat": -51.62777703380608, "lon": 35.55641423110233, "alt_km": 767.4039940738867, "timestamp": "2025-12-09T09:46:48.039079+00:00", "meta": {"OBJECT_NAME": "COSMOS 2251 DEB", "OBJECT_ID": "1993-036HE", "EPOCH": "2025-12-08T16:11:32.401248", "MEAN_MOTION": 14.3390741, "ECCENTRICITY": 0.00627196, "INCLINATION": 73.9549, "RA_OF_ASC_NODE": 58.2158, "ARG_OF_PERICENTER": 240.0214, "MEAN_ANOMALY": 243.3586, "EPHEMERIS_TYPE": 0, "CLASSIFICATION_TYPE": "U", "NORAD_CAT_ID": 34019, "ELEMENT_SET_NO": 999, "REV_AT_EPOCH": 87462, "BSTAR": 0.0015775518, "MEAN_MOTION_DOT": 4.47e-05, "MEAN_MOTION_DDOT": 0}, "tle": {"line1": "1 34019U 93036HE  25342.67468057  .00004470  00000+0  15776-2 0  9999", "line2": "2 34019  73.9549  58.2158 0062719 240.0214 243.3586 14.33907410874623"}}, "geometry": {"type": "Point", "coordinates": [35.55641423110233, -51.62777703380608]}}, {"type": "Feature", "properties": {"norad_id": 34021, "name": "COSMOS 2251 DEB", "group": "cosmos-2251-debris", "lat": -30.564815492117997, "lon": -34.181970571830014, "alt_km": 726.0809672113255, "timestamp": "2025-12-09T09:46:48.039090+00:00", "meta": {"OBJECT_NAME": "COSMOS 2251 DEB", "OBJECT_ID": "1993-036HG", "EPOCH": "2025-12-08T21:47:56.968800", "MEAN_MOTION": 14.49924001, "ECCENTRICITY": 0.0020829, "INCLINATION": 74.0358, "RA_OF_ASC_NODE": 137.0221, "ARG_OF_PERICENTER": 281.4333, "MEAN_ANOMALY": 205.9789, "EPHEMERIS_TYPE": 0, "CLASSIFICATION_TYPE": "U", "NORAD_CAT_ID": 34021, "ELEMENT_SET_NO": 999, "REV_AT_EPOCH": 88574, "BSTAR": 0.0006574, "MEAN_MOTION_DOT": 2.522e-05, "MEAN_MOTION_DDOT": 0}, "tle": {"line1": "1 34021U 93036HG  25342.90829825  .00002522  00000+0  65740-3 0  9995", "line2": "2 34021  74.0358 137.0221 0020829 281.4333 205.9789 14.49924001885746"}}, "geometry": {"type": "Point", "coordinates": [-34.181970571830014, -30.564815492117997]}}, {"type": "Feature", "properties": {"norad_id": 34022, "name": "COSMOS 2251 DEB", "group": "cosmos-2251-debris", "lat": 19.17932200331436, "lon": 91.22746356483718, "alt_km": 777.8974069296119, "timestamp": "2025-12-09T09:46:48.039100+00:00", "meta": {"OBJECT_NAME": "COSMOS 2251 DEB", "OBJECT_ID": "1993-036HH", "EPOCH": "2025-12-09T02:28:13.005120", "MEAN_MOTION": 14.38953846, "ECCENTRICITY": 0.0022591, "INCLINATION": 74.0542, "RA_OF_ASC_NODE": 277.4958, "ARG_OF_PERICENTER": 343.0934, "MEAN_ANOMALY": 39.6923, "EPHEMERIS_TYPE": 0, "CLASSIFICATION_TYPE": "U", "NORAD_CAT_ID": 34022, "ELEMENT_SET_NO": 999, "REV_AT_EPOCH": 88143, "BSTAR": 0.00039026, "MEAN_MOTION_DOT": 1.181e-05, "MEAN_MOTION_DDOT": 0}, "tle": {"line1": "1 34022U 93036HH  25343.10292830  .00001181  00000+0  39026-3 0  9997", "line2": "2 34022  74.0542 277.4958 0022591 343.0934  39.6923 14.38953846881439"}}, "geometry": {"type": "Point", "coordinates": [91.22746356483718, 19.17932200331436]}}, {"type": "Feature", "properties": {"norad_id": 34023, "name": "COSMOS 2251 DEB", "group": "cosmos-2251-debris", "lat": 56.62715013336634, "lon": -76.31361735890958, "alt_km": 745.6200902250685, "timestamp": "2025-12-09T09:46:48.039111+00:00", "meta": {"OBJECT_NAME": "COSMOS 2251 DEB", "OBJECT_ID": "1993-036HJ", "EPOCH": "2025-12-09T05:02:52.796256", "MEAN_MOTION": 14.40548481, "ECCENTRICITY": 0.0018354, "INCLINATION": 74.0258, "RA_OF_ASC_NODE": 258.2745, "ARG_OF_PERICENTER": 354.471, "MEAN_ANOMALY": 123.6045, "EPHEMERIS_TYPE": 0, "CLASSIFICATION_TYPE": "U", "NORAD_CAT_ID": 34023, "ELEMENT_SET_NO": 999, "REV_AT_EPOCH": 88163, "BSTAR": 0.00048912, "MEAN_MOTION_DOT": 1.535e-05, "MEAN_MOTION_DDOT": 0}, "tle": {"line1": "1 34023U 93036HJ  25343.21033329  .00001535  00000+0  48912-3 0  9993", "line2": "2 34023  74.0258 258.2745 0018354 354.4710 123.6045 14.40548481881634"}}, "geometry": {"type": "Point", "coordinates": [-76.31361735890958, 56.62715013336634]}}, {"type": "Feature", "properties": {"norad_id": 34024, "name": "COSMOS 2251 DEB", "group": "cosmos-2251-debris", "lat": 45.78116327955515, "lon": 125.0058968166976, "alt_km": 776.4385640753899, "timestamp": "2025-12-09T09:46:48.039121+00:00", "meta": {"OBJECT_NAME": "COSMOS 2251 DEB", "OBJECT_ID": "1993-036HK", "EPOCH": "2025-12-09T01:05:15.545184", "MEAN_MOTION": 14.35389237, "ECCENTRICITY": 0.0020867, "INCLINATION": 74.0462, "RA_OF_ASC_NODE": 322.765, "ARG_OF_PERICENTER": 14.4276, "MEAN_ANOMALY": 46.3088, "EPHEMERIS_TYPE": 0, "CLASSIFICATION_TYPE": "U", "NORAD_CAT_ID": 34024, "ELEMENT_SET_NO": 999, "REV_AT_EPOCH": 87971, "BSTAR": 0.00030148, "MEAN_MOTION_DOT": 8.41e-06, "MEAN_MOTION_DDOT": 0}, "tle": {"line1": "1 34024U 93036HK  25343.04531881  .00000841  00000+0  30148-3 0  9992", "line2": "2 34024  74.0462 322.7650 0020867  14.4276  46.3088 14.35389237879716"}}, "geometry": {"type": "Point", "coordinates": [125.0058968166976, 45.78116327955515]}}, {"type": "Feature", "properties": {"norad_id": 34026, "name": "COSMOS 2251 DEB", "group": "cosmos-2251-debris", "lat": 43.57671243195458, "lon": 146.7347221783212, "alt_km": 955.5098320226407, "timestamp": "2025-12-09T09:46:48.039132+00:00", "meta": {"OBJECT_NAME": "COSMOS 2251 DEB", "OBJECT_ID": "1993-036HM", "EPOCH": "2025-12-09T00:40:54.560064", "MEAN_MOTION": 13.65299417, "ECCENTRICITY": 0.0350858, "INCLINATION": 73.7679, "RA_OF_ASC_NODE": 343.4571, "ARG_OF_PERICENTER": 214.0243, "MEAN_ANOMALY": 221.371, "EPHEMERIS_TYPE": 0, "CLASSIFICATION_TYPE": "U", "NORAD_CAT_ID": 34026, "ELEMENT_SET_NO": 999, "REV_AT_EPOCH": 83481, "BSTAR": 0.0011014, "MEAN_MOTION_DOT": 1.339e-05, "MEAN_MOTION_DDOT": 0}, "tle": {"line1": "1 34026U 93036HM  25343.02840926  .00001339  00000+0  11014-2 0  9998", "line2": "2 34026  73.7679 343.4571 0350858 214.0243 221.3710 13.65299417834815"}}, "geometry": {"type": "Point", "coordinates": [146.7347221783212, 43.57671243195458]}}, {"type": "Feature", "properties": {"norad_id": 34028, "name": "COSMOS 2251 DEB", "group": "cosmos-2251-debris", "lat": -30.88418407400084, "lon": -17.598445464060298, "alt_km": 1579.105386074486, "timestamp": "2025-12-09T09:46:48.039144+00:00", "meta": {"OBJECT_NAME": "COSMOS 2251 DEB", "OBJECT_ID": "1993-036HP", "EPOCH": "2025-12-09T01:01:43.048704", "MEAN_MOTION": 13.20619149, "ECCENTRICITY": 0.0543828, "INCLINATION": 73.8834, "RA_OF_ASC_NODE": 352.9183, "ARG_OF_PERICENTER": 131.3969, "MEAN_ANOMALY": 265.3302, "EPHEMERIS_TYPE": 0, "CLASSIFICATION_TYPE": "U", "NORAD_CAT_ID": 34028, "ELEMENT_SET_NO": 999, "REV_AT_EPOCH": 80959, "BSTAR": 0.00036576, "MEAN_MOTION_DOT": 3.06e-06, "MEAN_MOTION_DDOT": 0}, "tle": {"line1": "1 34028U 93036HP  25343.04285936  .00000306  00000+0  36576-3 0  9990", "line2": "2 34028  73.8834 352.9183 0543828 131.3969 265.3302 13.20619149809593"}}, "geometry": {"type": "Point", "coordinates": [-17.598445464060298, -30.88418407400084]}}]}